OBJECT_NAME,OBJECT_ID,EPOCH,MEAN_MOTION,ECCENTRICITY,INCLINATION,RA_OF_ASC_NODE,ARG_OF_PERICENTER,MEAN_ANOMALY,EPHEMERIS_TYPE,CLASSIFICATION_TYPE,NORAD_CAT_ID,ELEMENT_SET_NO,REV_AT_EPOCH,BSTAR,MEAN_MOTION_DOT,MEAN_MOTION_DDOT
GSAT0216 (GALILEO 20),2017-079B,2026-06-26T02:31:50.584512,1.70474721,.00046591,55.0717,221.2611,276.6161,83.4222,0,U,43056,999,5315,0,.62E-6,0
GSAT0217 (GALILEO 21),2017-079C,2026-06-24T13:35:44.664288,1.70474705,.00038864,55.0690,221.3013,287.9346,72.1069,0,U,43057,999,5311,0,.52E-6,0
GSAT0218 (GALILEO 22),2017-079D,2026-06-20T16:19:53.873760,1.70474354,.00055072,55.0711,221.4058,273.6284,86.3834,0,U,43058,999,5307,0,.26E-6,0
BEIDOU-3 M7 (C27),2018-003A,2026-06-24T20:49:53.141088,1.86228032,.00048495,54.3206,302.0464,95.1161,264.9315,0,U,43107,999,5749,0,-.109E-5,0
BEIDOU-3 M8 (C28),2018-003B,2026-06-23T04:50:33.328896,1.86230831,.00025428,54.3145,302.0864,259.7475,100.2170,0,U,43108,999,5747,0,-.108E-5,0
BEIDOU-3 M4 (C22),2018-018A,2026-06-23T02:35:17.847744,1.86231248,.00076138,56.6562,62.9525,21.6777,338.3900,0,U,43207,999,5685,0,-.93E-6,0
BEIDOU-3 M3 (C21),2018-018B,2026-06-24T05:57:27.884160,1.86231188,.00083319,56.6570,62.9189,342.5104,17.4973,0,U,43208,999,5687,0,-.95E-6,0
BEIDOU-3 M9 (C29),2018-029A,2026-06-23T09:24:44.855712,1.86228474,.00010003,54.1874,299.7308,149.6212,210.3794,0,U,43245,999,5601,0,-.108E-5,0
BEIDOU-3 M10 (C30),2018-029B,2026-06-25T11:23:02.894784,1.86229259,.00037893,54.1831,299.6846,41.3487,318.6744,0,U,43246,999,5603,0,-.105E-5,0
IRNSS-1I,2018-035A,2026-06-24T19:11:38.629824,1.00275960,.00176215,28.7725,74.0767,182.3144,359.3363,0,U,43286,999,3015,0,.66E-6,0
COSMOS 2527 (756),2018-053A,2026-06-26T00:00:57.081024,2.13102108,.00068737,65.5828,73.6132,236.8993,123.0709,0,U,43508,999,6246,0,-.62E-6,0
BEIDOU-2 IGSO-7 (C16),2018-057A,2026-06-25T16:27:37.842624,1.00249090,.01048891,55.1968,162.9827,238.0070,228.9610,0,U,43539,999,2921,0,-.23E-6,0
GSAT0221 (GALILEO 25),2018-060A,2026-06-24T02:29:44.024928,1.70476197,.00025302,57.1671,341.5936,300.0731,59.8987,0,U,43564,999,4928,0,-.98E-6,0
GSAT0222 (GALILEO 26),2018-060B,2026-06-25T11:55:24.810816,1.70476000,.0002086,57.1695,341.5596,244.5899,115.3843,0,U,43565,999,4935,0,-.97E-6,0
GSAT0219 (GALILEO 23),2018-060C,2026-06-23T08:54:45.661248,1.70476156,.00018503,57.1701,341.6184,318.0636,41.9192,0,U,43566,999,4929,0,-.98E-6,0
GSAT0220 (GALILEO 24),2018-060D,2026-06-24T18:22:21.701280,1.70476182,.00019268,57.1676,341.5803,308.3062,51.6730,0,U,43567,999,4930,0,-.97E-6,0
BEIDOU-3 M5 (C23),2018-062A,2026-06-26T05:38:53.016576,1.86228770,.00058286,54.0859,181.9962,291.5726,68.3953,0,U,43581,999,5380,0,.97E-6,0
BEIDOU-3 M6 (C24),2018-062B,2026-06-26T02:22:20.571744,1.86228182,.00050576,54.0857,181.9897,9.2241,350.8155,0,U,43582,999,5380,0,.98E-6,0
BEIDOU-3 M12 (C26),2018-067A,2026-06-26T00:53:39.707232,1.86227747,.00078251,54.1809,180.7397,29.5618,330.5103,0,U,43602,999,5328,0,.98E-6,0
BEIDOU-3 M11 (C25),2018-067B,2026-06-26T04:08:11.349312,1.86227211,.0004571,54.1781,180.6987,12.3574,347.6813,0,U,43603,999,5331,0,.97E-6,0
BEIDOU-3 M13 (C32),2018-072A,2026-06-23T23:30:12.890304,1.86231143,.00071123,56.6310,62.4352,330.2799,29.7162,0,U,43622,999,5278,0,-.95E-6,0
BEIDOU-3 M14 (C33),2018-072B,2026-06-25T23:49:19.291296,1.86231224,.0006093,56.6345,62.3631,4.7501,355.2976,0,U,43623,999,5281,0,-.88E-6,0
BEIDOU-3 M16 (C35),2018-078A,2026-06-22T22:13:33.101184,1.86232370,.00070757,54.0842,299.7848,40.9359,319.1123,0,U,43647,999,5226,0,-.107E-5,0
BEIDOU-3 M15 (C34),2018-078B,2026-06-26T06:38:56.415840,1.86232565,.00039913,54.0766,299.6676,57.9517,302.0826,0,U,43648,999,5234,0,-.1E-5,0
BEIDOU-3 G1 (C59),2018-085A,2026-06-26T06:28:11.887392,1.00270999,.00085298,2.8919,97.1297,351.3368,82.9063,0,U,43683,999,2815,0,-.101E-5,0
COSMOS 2529 (757),2018-086A,2026-06-26T02:19:47.979840,2.13102017,.0012114,64.2953,192.2935,256.4695,103.4491,0,U,43687,999,5947,0,.106E-5,0
BEIDOU-3 M17 (C36),2018-093A,2026-06-23T07:04:57.567936,1.86228518,.0010172,54.1694,182.0887,292.5726,119.7810,0,U,43706,999,5165,0,.1E-5,0
BEIDOU-3 M18 (C37),2018-093B,2026-06-25T18:21:53.521920,1.86226621,.00081309,54.1702,181.9972,321.0372,38.9351,0,U,43707,999,5169,0,.1E-5,0
GPS BIII-1  (PRN 04),2018-109A,2026-06-26T03:45:21.040128,2.00562253,.00384207,55.6873,91.8327,197.7328,282.2646,0,U,43873,999,5525,0,-.64E-6,0
BEIDOU-3 IGSO-1 (C38),2019-023A,2026-06-24T12:59:44.316960,1.00289953,.00257477,58.7053,37.5725,224.9564,323.4804,0,U,44204,999,728,0,-.226E-5,0
BEIDOU-2 G8 (C01),2019-027A,2026-06-26T06:23:49.805952,1.00268986,.00099551,1.6816,74.5271,284.8101,155.5012,0,U,44231,999,2617,0,-.238E-5,0
